{
  "type": "FeatureCollection",
  "features": [
    {
      "type": "Feature",
      "properties": {
        "norad_id": 66523,
        "name": "STARLINK-35969",
        "group": "last-30-days",
        "lat": -11.0759094162778,
        "lon": -154.6209416287075,
        "alt_km": 415.8567241451083,
        "timestamp": "2025-12-19T16:54:42.965178+00:00",
        "meta_object_name": "STARLINK-35969",
        "meta_object_id": "2025-265H",
        "meta_epoch": "2025-12-18T09:09:12.138336",
        "meta_mean_motion": 15.50611423,
        "meta_eccentricity": 0.00033344,
        "meta_inclination": 43.0034,
        "meta_ra_of_asc_node": 20.9974,
        "meta_arg_of_pericenter": 293.546,
        "meta_mean_anomaly": 66.505,
        "meta_ephemeris_type": 0,
        "meta_classification_type": "U",
        "meta_norad_cat_id": 66523,
        "meta_element_set_no": 999,
        "meta_rev_at_epoch": 463,
        "meta_bstar": 0.0017102278,
        "meta_mean_motion_dot": 0.00101428,
        "meta_mean_motion_ddot": 0,
        "tle_line1": "1 66523U 25265H   25352.38139049  .00101428  00000+0  17102-2 0  9994",
        "tle_line2": "2 66523  43.0034  20.9974 0003334 293.5460  66.5050 15.50611423  4634"
      },
      "geometry": {
        "type": "Point",
        "coordinates": [
          -154.6209416287075,
          -11.0759094162778
        ]
      }
    },
    {
      "type": "Feature",
      "properties": {
        "norad_id": 66524,
        "name": "STARLINK-35687",
        "group": "last-30-days",
        "lat": -42.182458155760365,
        "lon": -62.57396319758229,
        "alt_km": 446.11115259630515,
        "timestamp": "2025-12-19T16:54:42.965189+00:00",
        "meta_object_name": "STARLINK-35687",
        "meta_object_id": "2025-265J",
        "meta_epoch": "2025-12-18T10:08:29.779296",
        "meta_mean_motion": 15.40707286,
        "meta_eccentricity": 0.00013869,
        "meta_inclination": 43.0026,
        "meta_ra_of_asc_node": 21.3158,
        "meta_arg_of_pericenter": 269.7138,
        "meta_mean_anomaly": 90.356,
        "meta_ephemeris_type": 0,
        "meta_classification_type": "U",
        "meta_norad_cat_id": 66524,
        "meta_element_set_no": 999,
        "meta_rev_at_epoch": 463,
        "meta_bstar": 0.00099694918,
        "meta_mean_motion_dot": 0.00041578,
        "meta_mean_motion_ddot": 0,
        "tle_line1": "1 66524U 25265J   25352.42256689  .00041578  00000+0  99695-3 0  9997",
        "tle_line2": "2 66524  43.0026  21.3158 0001386 269.7138  90.3560 15.40707286  4630"
      },
      "geometry": {
        "type": "Point",
        "coordinates": [
          -62.57396319758229,
          -42.182458155760365
        ]
      }
    },
    {
      "type": "Feature",
      "properties": {
        "norad_id": 66525,
        "name": "STARLINK-35975",
        "group": "last-30-days",
        "lat": -20.253189520672525,
        "lon": -9.530384745885634,
        "alt_km": 446.7812467797039,
        "timestamp": "2025-12-19T16:54:42.965200+00:00",
        "meta_object_name": "STARLINK-35975",
        "meta_object_id": "2025-265K",
        "meta_epoch": "2025-12-19T03:02:29.122080",
        "meta_mean_motion": 15.40730714,
        "meta_eccentricity": 0.00016909,
        "meta_inclination": 42.9957,
        "meta_ra_of_asc_node": 17.1313,
        "meta_arg_of_pericenter": 177.4314,
        "meta_mean_anomaly": 182.6552,
        "meta_ephemeris_type": 0,
        "meta_classification_type": "U",
        "meta_norad_cat_id": 66525,
        "meta_element_set_no": 999,
        "meta_rev_at_epoch": 474,
        "meta_bstar": 0.00084302185,
        "meta_mean_motion_dot": 0.0003511,
        "meta_mean_motion_ddot": 0,
        "tle_line1": "1 66525U 25265K   25353.12672595  .00035110  00000+0  84302-3 0  9998",
        "tle_line2": "2 66525  42.9957  17.1313 0001690 177.4314 182.6552 15.40730714  4747"
      },
      "geometry": {
        "type": "Point",
        "coordinates": [
          -9.530384745885634,
          -20.253189520672525
        ]
      }
    },
    {
      "type": "Feature",
      "properties": {
        "norad_id": 66526,
        "name": "STARLINK-35932",
        "group": "last-30-days",
        "lat": 34.61561971208316,
        "lon": 61.389407062528285,
        "alt_km": 439.15599395019217,
        "timestamp": "2025-12-19T16:54:42.965216+00:00",
        "meta_object_name": "STARLINK-35932",
        "meta_object_id": "2025-265L",
        "meta_epoch": "2025-12-19T08:00:01.999872",
        "meta_mean_motion": 15.40683851,
        "meta_eccentricity": 0.00012248,
        "meta_inclination": 43.0002,
        "meta_ra_of_asc_node": 15.736,
        "meta_arg_of_pericenter": 276.5562,
        "meta_mean_anomaly": 238.0161,
        "meta_ephemeris_type": 0,
        "meta_classification_type": "U",
        "meta_norad_cat_id": 66526,
        "meta_element_set_no": 999,
        "meta_rev_at_epoch": 594,
        "meta_bstar": 0.00037150939,
        "meta_mean_motion_dot": 0.00015238,
        "meta_mean_motion_ddot": 0,
        "tle_line1": "1 66526U 25265L   25353.33335648  .00015238  00000+0  37151-3 0  9996",
        "tle_line2": "2 66526  43.0002  15.7360 0001224 276.5562 238.0161 15.40683851  5940"
      },
      "geometry": {
        "type": "Point",
        "coordinates": [
          61.389407062528285,
          34.61561971208316
        ]
      }
    },
    {
      "type": "Feature",
      "properties": {
        "norad_id": 66527,
        "name": "STARLINK-35935",
        "group": "last-30-days",
        "lat": 23.891731120251116,
        "lon": 165.00374079688274,
        "alt_km": 440.65496404923397,
        "timestamp": "2025-12-19T16:54:42.965228+00:00",
        "meta_object_name": "STARLINK-35935",
        "meta_object_id": "2025-265M",
        "meta_epoch": "2025-12-19T08:00:01.999872",
        "meta_mean_motion": 15.40655572,
        "meta_eccentricity": 0.00011298,
        "meta_inclination": 43.0005,
        "meta_ra_of_asc_node": 15.5261,
        "meta_arg_of_pericenter": 257.4953,
        "meta_mean_anomaly": 344.1343,
        "meta_ephemeris_type": 0,
        "meta_classification_type": "U",
        "meta_norad_cat_id": 66527,
        "meta_element_set_no": 999,
        "meta_rev_at_epoch": 605,
        "meta_bstar": 0.0008284342,
        "meta_mean_motion_dot": 0.00034407,
        "meta_mean_motion_ddot": 0,
        "tle_line1": "1 66527U 25265M   25353.33335648  .00034407  00000+0  82843-3 0  9994",
        "tle_line2": "2 66527  43.0005  15.5261 0001129 257.4953 344.1343 15.40655572  6051"
      },
      "geometry": {
        "type": "Point",
        "coordinates": [
          165.00374079688274,
          23.891731120251116
        ]
      }
    },
    {
      "type": "Feature",
      "properties": {
        "norad_id": 66528,
        "name": "STARLINK-35928",
        "group": "last-30-days",
        "lat": -17.152948279367607,
        "lon": -147.42796864286998,
        "alt_km": 415.87584799399156,
        "timestamp": "2025-12-19T16:54:42.965239+00:00",
        "meta_object_name": "STARLINK-35928",
        "meta_object_id": "2025-265N",
        "meta_epoch": "2025-12-18T10:39:29.722464",
        "meta_mean_motion": 15.50593981,
        "meta_eccentricity": 0.00016336,
        "meta_inclination": 42.9983,
        "meta_ra_of_asc_node": 20.6041,
        "meta_arg_of_pericenter": 271.028,
        "meta_mean_anomaly": 89.0393,
        "meta_ephemeris_type": 0,
        "meta_classification_type": "U",
        "meta_norad_cat_id": 66528,
        "meta_element_set_no": 999,
        "meta_rev_at_epoch": 464,
        "meta_bstar": 0.0011684581,
        "meta_mean_motion_dot": 0.00068849,
        "meta_mean_motion_ddot": 0,
        "tle_line1": "1 66528U 25265N   25352.44409401  .00068849  00000+0  11685-2 0  9997",
        "tle_line2": "2 66528  42.9983  20.6041 0001633 271.0280  89.0393 15.50593981  4642"
      },
      "geometry": {
        "type": "Point",
        "coordinates": [
          -147.42796864286998,
          -17.152948279367607
        ]
      }
    },
    {
      "type": "Feature",
      "properties": {
        "norad_id": 66529,
        "name": "STARLINK-35933",
        "group": "last-30-days",
        "lat": -39.12913220411705,
        "lon": -46.911586297690455,
        "alt_km": 446.3080990262679,
        "timestamp": "2025-12-19T16:54:42.965250+00:00",
        "meta_object_name": "STARLINK-35933",
        "meta_object_id": "2025-265P",
        "meta_epoch": "2025-12-19T03:12:09.832896",
        "meta_mean_motion": 15.40747143,
        "meta_eccentricity": 0.00014986,
        "meta_inclination": 43.0014,
        "meta_ra_of_asc_node": 17.1871,
        "meta_arg_of_pericenter": 237.5668,
        "meta_mean_anomaly": 122.5043,
        "meta_ephemeris_type": 0,
        "meta_classification_type": "U",
        "meta_norad_cat_id": 66529,
        "meta_element_set_no": 999,
        "meta_rev_at_epoch": 474,
        "meta_bstar": 0.0011365327,
        "meta_mean_motion_dot": 0.00047543,
        "meta_mean_motion_ddot": 0,
        "tle_line1": "1 66529U 25265P   25353.13344714  .00047543  00000+0  11365-2 0  9993",
        "tle_line2": "2 66529  43.0014  17.1871 0001498 237.5668 122.5043 15.40747143  4744"
      },
      "geometry": {
        "type": "Point",
        "coordinates": [
          -46.911586297690455,
          -39.12913220411705
        ]
      }
    }
  ]
}